IRIDIUM 116             
1 43072U 17083C   23355.89863962  .00000482  00000+0  16505-3 0  9997
2 43072  86.3964 341.6193 0002093  92.0636 268.0799 14.34218619313985
IRIDIUM 130             
1 43073U 17083D   23355.93670311 -.00000048  00000+0 -24329-4 0  9991
2 43073  86.3968 341.7903 0002178  89.2369 270.9076 14.34217967313935
IRIDIUM 151             
1 43074U 17083E   23355.42296593  .00000494  00000+0  16934-3 0  9997
2 43074  86.3967 341.8555 0002105  97.7377 262.4058 14.34222125313884
IRIDIUM 134             
1 43075U 17083F   23355.94940019  .00000500  00000+0  17139-3 0  9990
2 43075  86.3968 341.6310 0002295  85.8454 274.3004 14.34222600313923
IRIDIUM 137             
1 43076U 17083G   23355.96208925  .00000035  00000+0  53254-5 0  9999
2 43076  86.3967 341.7008 0001860  92.5117 267.6292 14.34218933313991
IRIDIUM 141             
1 43077U 17083H   23355.95572435  .00000496  00000+0  17005-3 0  9992
2 43077  86.3965 341.5851 0002254  93.5966 266.5487 14.34222751313992
IRIDIUM 153             
1 43078U 17083J   23355.90791548 -.00000068  00000+0 -31256-4 0  9998
2 43078  86.3963 310.0563 0002495  94.5307 265.6174 14.34218988315092
IRIDIUM 131             
1 43079U 17083K   23355.94305409  .00000041  00000+0  77476-5 0  9994
2 43079  86.3969 341.7158 0002203  92.4223 267.7225 14.34218650313927
